[{"OBJECT_NAME":"STARLINK-34738","OBJECT_ID":"2025-158V","EPOCH":"2026-03-09T14:06:40.368672","MEAN_MOTION":15.0564453,"ECCENTRICITY":0.0001715,"INCLINATION":97.6013,"RA_OF_ASC_NODE":294.0356,"ARG_OF_PERICENTER":97.9225,"MEAN_ANOMALY":262.2197,"EPHEMERIS_TYPE":0,"CLASSIFICATION_TYPE":"U","NORAD_CAT_ID":64951,"ELEMENT_SET_NO":999,"REV_AT_EPOCH":3534,"BSTAR":0.00022451,"MEAN_MOTION_DOT":3.18e-5,"MEAN_MOTION_DDOT":0},{"OBJECT_NAME":"KUIPER-00203","OBJECT_ID":"2026-030K","EPOCH":"2026-03-09T22:00:01.999584","MEAN_MOTION":15.12119903,"ECCENTRICITY":0.00114753,"INCLINATION":51.8873,"RA_OF_ASC_NODE":219.0557,"ARG_OF_PERICENTER":61.3884,"MEAN_ANOMALY":261.5536,"EPHEMERIS_TYPE":0,"CLASSIFICATION_TYPE":"U","NORAD_CAT_ID":67773,"ELEMENT_SET_NO":999,"REV_AT_EPOCH":368,"BSTAR":-0.068919543,"MEAN_MOTION_DOT":-0.01112832,"MEAN_MOTION_DDOT":0}]
